start=new Date('2022-01-19T00:00:00.000Z').valueOf();
sats=[{"MEAN_MOTION_DOT":"0.00000282","INCLINATION":"53.0555","APOAPSIS":"548.104","ARG_OF_PERICENTER":"95.0524","PERIOD":"95.592","EPOCH":"2022-01-18T13:41:11.442912","REV_AT_EPOCH":"10212","MEAN_ANOMALY":"265.0610","DECAY_DATE":null,"OBJECT_TYPE":"PAYLOAD","OBJECT_NAME":"STARLINK-1316","EPHEMERIS_TYPE":"0","MEAN_MOTION":"15.06397638","REF_FRAME":"TEME","TIME_SYSTEM":"UTC","MEAN_MOTION_DDOT":"0.0000000000000","CENTER_NAME":"EARTH","RCS_SIZE":"LARGE","TLE_LINE1":"1 45415U 20019BH  22018.57027133  .00000282  00000-0  37800-4 0  9996","COUNTRY_CODE":"US","MEAN_ELEMENT_THEORY":"SGP4","SITE":"AFETR","GP_ID":"194153043","SEMIMAJOR_AXIS":"6925.356","ELEMENT_SET_NO":"999","OBJECT_ID":"2020-019BH","TLE_LINE2":"2 45415  53.0555  80.2876 0001276  95.0524 265.0610 15.06397638102120","PERIAPSIS":"546.337","BSTAR":"0.00003780000000","ECCENTRICITY":"0.00012760","LAUNCH_DATE":"2020-03-18","RA_OF_ASC_NODE":"80.2876","FILE":"3276875","CLASSIFICATION_TYPE":"U","NORAD_CAT_ID":"45415"},{"COUNTRY_CODE":"US","SITE":"AFETR","GP_ID":"194132309","MEAN_ELEMENT_THEORY":"SGP4","SEMIMAJOR_AXIS":"6925.388","ELEMENT_SET_NO":"999","OBJECT_ID":"2020-019BJ","PERIAPSIS":"546.495","TLE_LINE2":"2 45416  53.0557  80.7560 0001094  93.9959 266.1155 15.06387275102093","BSTAR":"-0.00019211000000","LAUNCH_DATE":"2020-03-18","ECCENTRICITY":"0.00010940","RA_OF_ASC_NODE":"80.7560","FILE":"3276805","CLASSIFICATION_TYPE":"U","NORAD_CAT_ID":"45416","INCLINATION":"53.0557","MEAN_MOTION_DOT":"-0.00003141","PERIOD":"95.593","ARG_OF_PERICENTER":"93.9959","APOAPSIS":"548.010","EPOCH":"2022-01-18T11:17:54.060576","REV_AT_EPOCH":"10209","DECAY_DATE":null,"MEAN_ANOMALY":"266.1155","OBJECT_TYPE":"PAYLOAD","EPHEMERIS_TYPE":"0","MEAN_MOTION":"15.06387275","OBJECT_NAME":"STARLINK-1318","MEAN_MOTION_DDOT":"0.0000000000000","TIME_SYSTEM":"UTC","CENTER_NAME":"EARTH","REF_FRAME":"TEME","RCS_SIZE":"LARGE","TLE_LINE1":"1 45416U 20019BJ  22018.47076459 -.00003141  00000-0 -19211-3 0  9995"},{"CLASSIFICATION_TYPE":"U","NORAD_CAT_ID":"45417","FILE":"3276875","ECCENTRICITY":"0.00011620","LAUNCH_DATE":"2020-03-18","RA_OF_ASC_NODE":"109.8437","TLE_LINE2":"2 45417  53.0551 109.8437 0001162  94.0189 266.0933 15.06383571101971","PERIAPSIS":"546.459","BSTAR":"-0.00000956830000","ELEMENT_SET_NO":"999","OBJECT_ID":"2020-019BK","SEMIMAJOR_AXIS":"6925.399","COUNTRY_CODE":"US","MEAN_ELEMENT_THEORY":"SGP4","GP_ID":"194152548","SITE":"AFETR","TLE_LINE1":"1 45417U 20019BK  22018.67441539 -.00000424  00000-0 -95683-5 0  9993","REF_FRAME":"TEME","MEAN_MOTION_DDOT":"0.0000000000000","CENTER_NAME":"EARTH","TIME_SYSTEM":"UTC","RCS_SIZE":"LARGE","OBJECT_TYPE":"PAYLOAD","OBJECT_NAME":"STARLINK-1286","EPHEMERIS_TYPE":"0","MEAN_MOTION":"15.06383571","DECAY_DATE":null,"MEAN_ANOMALY":"266.0933","EPOCH":"2022-01-18T16:11:09.489696","REV_AT_EPOCH":"10197","MEAN_MOTION_DOT":"-0.00000424","INCLINATION":"53.0551","APOAPSIS":"548.069","PERIOD":"95.593","ARG_OF_PERICENTER":"94.0189"},{"ECCENTRICITY":"0.00016030","LAUNCH_DATE":"2020-03-18","RA_OF_ASC_NODE":"130.0516","FILE":"3276550","CLASSIFICATION_TYPE":"U","NORAD_CAT_ID":"45418","COUNTRY_CODE":"US","GP_ID":"194101806","SITE":"AFETR","MEAN_ELEMENT_THEORY":"SGP4","SEMIMAJOR_AXIS":"6938.659","ELEMENT_SET_NO":"999","OBJECT_ID":"2020-019BL","PERIAPSIS":"559.412","TLE_LINE2":"2 45418  53.0005 130.0516 0001603 103.2255 256.8910 15.02067557101394","BSTAR":"0.00060028000000","MEAN_MOTION_DDOT":"0.0000000000000","TIME_SYSTEM":"UTC","CENTER_NAME":"EARTH","REF_FRAME":"TEME","RCS_SIZE":"LARGE","TLE_LINE1":"1 45418U 20019BL  22018.56744165  .00007703  00000-0  60028-3 0  9991","INCLINATION":"53.0005","MEAN_MOTION_DOT":"0.00007703","ARG_OF_PERICENTER":"103.2255","PERIOD":"95.868","APOAPSIS":"561.636","EPOCH":"2022-01-18T13:37:06.958560","REV_AT_EPOCH":"10139","DECAY_DATE":null,"MEAN_ANOMALY":"256.8910","OBJECT_TYPE":"PAYLOAD","MEAN_MOTION":"15.02067557","EPHEMERIS_TYPE":"0","OBJECT_NAME":"STARLINK-1299"},{"ELEMENT_SET_NO":"999","OBJECT_ID":"2020-019BM","PERIAPSIS":"546.361","TLE_LINE2":"2 45419  53.0558 110.4387 0001286  86.0938 274.0198 15.06387567101704","BSTAR":"-0.00011110000000","COUNTRY_CODE":"US","SITE":"AFETR","GP_ID":"194101817","MEAN_ELEMENT_THEORY":"SGP4","SEMIMAJOR_AXIS":"6925.387","FILE":"3276551","CLASSIFICATION_TYPE":"U","NORAD_CAT_ID":"45419","LAUNCH_DATE":"2020-03-18","ECCENTRICITY":"0.00012860","RA_OF_ASC_NODE":"110.4387","MEAN_ANOMALY":"274.0198","DECAY_DATE":null,"OBJECT_TYPE":"PAYLOAD","MEAN_MOTION":"15.06387567","EPHEMERIS_TYPE":"0","OBJECT_NAME":"STARLINK-1308","INCLINATION":"53.0558","MEAN_MOTION_DOT":"-0.00001935","ARG_OF_PERICENTER":"86.0938","PERIOD":"95.593","APOAPSIS":"548.142","EPOCH":"2022-01-18T12:54:45.638208","REV_AT_EPOCH":"10170","TLE_LINE1":"1 45419U 20019BM  22018.53802822 -.00001935  00000-0 -11110-3 0  9995","CENTER_NAME":"EARTH","MEAN_MOTION_DDOT":"0.0000000000000","TIME_SYSTEM":"UTC","REF_FRAME":"TEME","RCS_SIZE":"LARGE"},{"PERIAPSIS":"546.160","TLE_LINE2":"2 45531  53.0587  49.3836 0001625  86.0053 274.1122 15.06376519 97364","BSTAR":"-0.00010848000000","ELEMENT_SET_NO":"999","OBJECT_ID":"2020-025A","SEMIMAJOR_AXIS":"6925.421","COUNTRY_CODE":"US","SITE":"AFETR","GP_ID":"194153790","MEAN_ELEMENT_THEORY":"SGP4","CLASSIFICATION_TYPE":"U","NORAD_CAT_ID":"45531","FILE":"3276875","LAUNCH_DATE":"2020-04-22","ECCENTRICITY":"0.00016250","RA_OF_ASC_NODE":"49.3836","OBJECT_TYPE":"PAYLOAD","MEAN_MOTION":"15.06376519","EPHEMERIS_TYPE":"0","OBJECT_NAME":"STARLINK-1329","DECAY_DATE":null,"MEAN_ANOMALY":"274.1122","EPOCH":"2022-01-18T18:31:49.236096","REV_AT_EPOCH":"9736","INCLINATION":"53.0587","MEAN_MOTION_DOT":"-0.00001896","ARG_OF_PERICENTER":"86.0053","PERIOD":"95.594","APOAPSIS":"548.411","TLE_LINE1":"1 45531U 20025A   22018.77209764 -.00001896  00000-0 -10848-3 0  9992","MEAN_MOTION_DDOT":"0.0000000000000","CENTER_NAME":"EARTH","TIME_SYSTEM":"UTC","REF_FRAME":"TEME","RCS_SIZE":"LARGE"},{"CLASSIFICATION_TYPE":"U","NORAD_CAT_ID":"45532","FILE":"3276875","LAUNCH_DATE":"2020-04-22","ECCENTRICITY":"0.00012950","RA_OF_ASC_NODE":"49.3432","TLE_LINE2":"2 45532  53.0555  49.3432 0001295  87.3768 272.7369 15.06387524 97367","PERIAPSIS":"546.355","BSTAR":"-0.00009353000000","ELEMENT_SET_NO":"999","OBJECT_ID":"2020-025B","SEMIMAJOR_AXIS":"6925.387","COUNTRY_CODE":"US","MEAN_ELEMENT_THEORY":"SGP4","GP_ID":"194152560","SITE":"AFETR","TLE_LINE1":"1 45532U 20025B   22018.78314883 -.00001674  00000-0 -93530-4 0  9997","REF_FRAME":"TEME","MEAN_MOTION_DDOT":"0.0000000000000","TIME_SYSTEM":"UTC","CENTER_NAME":"EARTH","RCS_SIZE":"LARGE","OBJECT_TYPE":"PAYLOAD","OBJECT_NAME":"STARLINK-1338","MEAN_MOTION":"15.06387524","EPHEMERIS_TYPE":"0","DECAY_DATE":null,"MEAN_ANOMALY":"272.7369","EPOCH":"2022-01-18T18:47:44.058912","REV_AT_EPOCH":"9736","MEAN_MOTION_DOT":"-0.00001674","INCLINATION":"53.0555","APOAPSIS":"548.149","PERIOD":"95.593","ARG_OF_PERICENTER":"87.3768"},{"SITE":"AFETR","GP_ID":"194152811","MEAN_ELEMENT_THEORY":"SGP4","COUNTRY_CODE":"US","SEMIMAJOR_AXIS":"6850.618","OBJECT_ID":"2020-025C","ELEMENT_SET_NO":"999","BSTAR":"0.00125310000000","PERIAPSIS":"470.747","TLE_LINE2":"2 45533  53.0509  39.9301 0002534  45.7779 314.3428 15.31116004 97498","RA_OF_ASC_NODE":"39.9301","LAUNCH_DATE":"2020-04-22","ECCENTRICITY":"0.00025340","FILE":"3276875","NORAD_CAT_ID":"45533","CLASSIFICATION_TYPE":"U","ARG_OF_PERICENTER":"45.7779","PERIOD":"94.049","APOAPSIS":"474.219","INCLINATION":"53.0509","MEAN_MOTION_DOT":"0.00038020","REV_AT_EPOCH":"9749","EPOCH":"2022-01-18T18:21:05.705568","MEAN_ANOMALY":"314.3428","DECAY_DATE":null,"MEAN_MOTION":"15.31116004","EPHEMERIS_TYPE":"0","OBJECT_NAME":"STARLINK-1339","OBJECT_TYPE":"PAYLOAD","RCS_SIZE":"LARGE","MEAN_MOTION_DDOT":"0.0000000000000","CENTER_NAME":"EARTH","TIME_SYSTEM":"UTC","REF_FRAME":"TEME","TLE_LINE1":"1 45533U 20025C   22018.76464937  .00038020  00000-0  12531-2 0  9995"},{"OBJECT_NAME":"STARLINK-1341","MEAN_MOTION":"15.06384080","EPHEMERIS_TYPE":"0","OBJECT_TYPE":"PAYLOAD","MEAN_ANOMALY":"289.3515","DECAY_DATE":null,"REV_AT_EPOCH":"9736","EPOCH":"2022-01-18T19:03:40.091328","APOAPSIS":"548.259","PERIOD":"95.593","ARG_OF_PERICENTER":"70.7630","MEAN_MOTION_DOT":"-0.00002106","INCLINATION":"53.0551","TLE_LINE1":"1 45534U 20025D   22018.79421402 -.00002106  00000-0 -12258-3 0  9994","RCS_SIZE":"LARGE","REF_FRAME":"TEME","CENTER_NAME":"EARTH","MEAN_MOTION_DDOT":"0.0000000000000","TIME_SYSTEM":"UTC","BSTAR":"-0.00012258000000","TLE_LINE2":"2 45534  53.0551  49.2938 0001439  70.7630 289.3515 15.06384080 97360","PERIAPSIS":"546.266","OBJECT_ID":"2020-025D","ELEMENT_SET_NO":"999","SEMIMAJOR_AXIS":"6925.397","MEAN_ELEMENT_THEORY":"SGP4","SITE":"AFETR","GP_ID":"194153556","COUNTRY_CODE":"US","NORAD_CAT_ID":"45534","CLASSIFICATION_TYPE":"U","FILE":"3276875","RA_OF_ASC_NODE":"49.2938","ECCENTRICITY":"0.00014390","LAUNCH_DATE":"2020-04-22"},{"RCS_SIZE":"LARGE","REF_FRAME":"TEME","CENTER_NAME":"EARTH","MEAN_MOTION_DDOT":"0.0000000000000","TIME_SYSTEM":"UTC","TLE_LINE1":"1 45535U 20025E   22018.81263634 -.00000644  00000-0 -24363-4 0  9995","REV_AT_EPOCH":"9737","EPOCH":"2022-01-18T19:30:11.779776","APOAPSIS":"548.257","ARG_OF_PERICENTER":"73.7299","PERIOD":"95.593","MEAN_MOTION_DOT":"-0.00000644","INCLINATION":"53.0549","OBJECT_NAME":"STARLINK-1350","MEAN_MOTION":"15.06386609","EPHEMERIS_TYPE":"0","OBJECT_TYPE":"PAYLOAD","DECAY_DATE":null,"MEAN_ANOMALY":"286.3850","RA_OF_ASC_NODE":"49.2223","LAUNCH_DATE":"2020-04-22","ECCENTRICITY":"0.00014470","NORAD_CAT_ID":"45535","CLASSIFICATION_TYPE":"U","FILE":"3276875","SEMIMAJOR_AXIS":"6925.390","MEAN_ELEMENT_THEORY":"SGP4","SITE":"AFETR","GP_ID":"194153290","COUNTRY_CODE":"US","BSTAR":"-0.00002436300000","TLE_LINE2":"2 45535  53.0549  49.2223 0001447  73.7299 286.3850 15.06386609 97377","PERIAPSIS":"546.252","OBJECT_ID":"2020-025E","ELEMENT_SET_NO":"999"}];
